start=new Date('2021-11-13T00:00:00.000Z').valueOf();
sats=[{"MEAN_ELEMENT_THEORY":"SGP4","APOAPSIS":"362.077","REF_FRAME":"TEME","RA_OF_ASC_NODE":"318.7453","TIME_SYSTEM":"UTC","CENTER_NAME":"EARTH","MEAN_MOTION":"15.69731466","TLE_LINE2":"2 49166  69.9981 318.7453 0003576 287.3681 236.9469 15.69731466  3737","MEAN_MOTION_DOT":"0.00063487","COUNTRY_CODE":"US","REV_AT_EPOCH":"373","DECAY_DATE":null,"CLASSIFICATION_TYPE":"U","OBJECT_ID":"2021-082AN","ARG_OF_PERICENTER":"287.3681","TLE_LINE1":"1 49166U 21082AN  21316.91667824  .00063487  00000-0  52995-3 0  9996","NORAD_CAT_ID":"49166","MEAN_ANOMALY":"236.9469","FILE":"3213639","INCLINATION":"69.9981","SEMIMAJOR_AXIS":"6737.802","OBJECT_TYPE":"PAYLOAD","ELEMENT_SET_NO":"999","EPHEMERIS_TYPE":"0","EPOCH":"2021-11-12T22:00:00.999936","ECCENTRICITY":"0.00035760","RCS_SIZE":"LARGE","MEAN_MOTION_DDOT":"0.0000000000000","PERIAPSIS":"357.258","OBJECT_NAME":"STARLINK-3089","LAUNCH_DATE":"2021-09-14","GP_ID":"189647045","PERIOD":"91.735","SITE":"AFWTR","BSTAR":"0.00052995000000"},{"BSTAR":"-0.00748220000000","LAUNCH_DATE":"2021-09-14","GP_ID":"189647624","PERIOD":"92.057","SITE":"AFWTR","OBJECT_NAME":"STARLINK-3054","RCS_SIZE":"LARGE","MEAN_MOTION_DDOT":"0.0000000000000","PERIAPSIS":"373.095","EPHEMERIS_TYPE":"0","EPOCH":"2021-11-12T22:00:00.999936","ECCENTRICITY":"0.00034470","OBJECT_TYPE":"PAYLOAD","ELEMENT_SET_NO":"999","INCLINATION":"69.9999","SEMIMAJOR_AXIS":"6753.558","MEAN_ANOMALY":"216.0201","NORAD_CAT_ID":"49167","FILE":"3213639","OBJECT_ID":"2021-082AP","ARG_OF_PERICENTER":"267.0455","TLE_LINE1":"1 49167U 21082AP  21316.91667824 -.00660848  00000-0 -74822-2 0  9995","DECAY_DATE":null,"CLASSIFICATION_TYPE":"U","MEAN_MOTION_DOT":"-0.00660848","COUNTRY_CODE":"US","REV_AT_EPOCH":"373","TIME_SYSTEM":"UTC","CENTER_NAME":"EARTH","MEAN_MOTION":"15.64241526","TLE_LINE2":"2 49167  69.9999 318.7915 0003447 267.0455 216.0201 15.64241526  3732","APOAPSIS":"377.751","REF_FRAME":"TEME","RA_OF_ASC_NODE":"318.7915","MEAN_ELEMENT_THEORY":"SGP4"},{"TIME_SYSTEM":"UTC","MEAN_MOTION":"15.69696763","TLE_LINE2":"2 49168  69.9977 318.7349 0003759 287.7510 244.9737 15.69696763  3733","CENTER_NAME":"EARTH","COUNTRY_CODE":"US","MEAN_MOTION_DOT":"0.00075311","REV_AT_EPOCH":"373","MEAN_ELEMENT_THEORY":"SGP4","APOAPSIS":"362.299","RA_OF_ASC_NODE":"318.7349","REF_FRAME":"TEME","TLE_LINE1":"1 49168U 21082AQ  21316.91667824  .00075311  00000-0  62831-3 0  9997","OBJECT_ID":"2021-082AQ","ARG_OF_PERICENTER":"287.7510","NORAD_CAT_ID":"49168","MEAN_ANOMALY":"244.9737","FILE":"3213639","DECAY_DATE":null,"CLASSIFICATION_TYPE":"U","EPOCH":"2021-11-12T22:00:00.999936","EPHEMERIS_TYPE":"0","ECCENTRICITY":"0.00037590","MEAN_MOTION_DDOT":"0.0000000000000","RCS_SIZE":"LARGE","PERIAPSIS":"357.234","SEMIMAJOR_AXIS":"6737.902","INCLINATION":"69.9977","OBJECT_TYPE":"PAYLOAD","ELEMENT_SET_NO":"999","PERIOD":"91.737","GP_ID":"189647521","LAUNCH_DATE":"2021-09-14","SITE":"AFWTR","BSTAR":"0.00062831000000","OBJECT_NAME":"STARLINK-3101"},{"INCLINATION":"69.9983","SEMIMAJOR_AXIS":"6737.906","ELEMENT_SET_NO":"999","OBJECT_TYPE":"PAYLOAD","EPOCH":"2021-11-12T22:00:00.999936","EPHEMERIS_TYPE":"0","ECCENTRICITY":"0.00038640","MEAN_MOTION_DDOT":"0.0000000000000","RCS_SIZE":"LARGE","PERIAPSIS":"357.167","OBJECT_NAME":"STARLINK-3046","LAUNCH_DATE":"2021-09-14","GP_ID":"189647797","PERIOD":"91.738","SITE":"AFWTR","BSTAR":"0.00063257000000","MEAN_ELEMENT_THEORY":"SGP4","APOAPSIS":"362.374","RA_OF_ASC_NODE":"318.7411","REF_FRAME":"TEME","TIME_SYSTEM":"UTC","TLE_LINE2":"2 49169  69.9983 318.7411 0003864 285.7534 242.7090 15.69695292  3736","MEAN_MOTION":"15.69695292","CENTER_NAME":"EARTH","COUNTRY_CODE":"US","MEAN_MOTION_DOT":"0.00075824","REV_AT_EPOCH":"373","DECAY_DATE":null,"CLASSIFICATION_TYPE":"U","TLE_LINE1":"1 49169U 21082AR  21316.91667824  .00075824  00000-0  63257-3 0  9990","OBJECT_ID":"2021-082AR","ARG_OF_PERICENTER":"285.7534","NORAD_CAT_ID":"49169","MEAN_ANOMALY":"242.7090","FILE":"3213639"},{"ELEMENT_SET_NO":"999","OBJECT_TYPE":"PAYLOAD","SEMIMAJOR_AXIS":"6751.774","INCLINATION":"69.9998","RCS_SIZE":"LARGE","MEAN_MOTION_DDOT":"0.0000000000000","PERIAPSIS":"371.318","EPHEMERIS_TYPE":"0","EPOCH":"2021-11-12T22:00:00.999936","ECCENTRICITY":"0.00034370","OBJECT_NAME":"STARLINK-3074","BSTAR":"-0.00730740000000","LAUNCH_DATE":"2021-09-14","GP_ID":"189647429","PERIOD":"92.021","SITE":"AFWTR","APOAPSIS":"375.959","REF_FRAME":"TEME","RA_OF_ASC_NODE":"318.7737","MEAN_ELEMENT_THEORY":"SGP4","MEAN_MOTION_DOT":"-0.00661470","COUNTRY_CODE":"US","REV_AT_EPOCH":"373","TIME_SYSTEM":"UTC","CENTER_NAME":"EARTH","TLE_LINE2":"2 49170  69.9998 318.7737 0003437 273.1626 235.1777 15.64861635  3733","MEAN_MOTION":"15.64861635","DECAY_DATE":null,"CLASSIFICATION_TYPE":"U","NORAD_CAT_ID":"49170","MEAN_ANOMALY":"235.1777","FILE":"3213639","ARG_OF_PERICENTER":"273.1626","OBJECT_ID":"2021-082AS","TLE_LINE1":"1 49170U 21082AS  21316.91667824 -.00661470  00000-0 -73074-2 0  9999"},{"SITE":"AFWTR","GP_ID":"189647242","PERIOD":"92.055","LAUNCH_DATE":"2021-09-14","BSTAR":"-0.00747480000000","OBJECT_NAME":"STARLINK-3107","ECCENTRICITY":"0.00034540","EPOCH":"2021-11-12T22:00:00.999936","EPHEMERIS_TYPE":"0","PERIAPSIS":"372.992","MEAN_MOTION_DDOT":"0.0000000000000","RCS_SIZE":"LARGE","INCLINATION":"69.9998","SEMIMAJOR_AXIS":"6753.460","OBJECT_TYPE":"PAYLOAD","ELEMENT_SET_NO":"999","TLE_LINE1":"1 49171U 21082AT  21316.91667824 -.00661073  00000-0 -74748-2 0  9998","OBJECT_ID":"2021-082AT","ARG_OF_PERICENTER":"273.3554","FILE":"3213639","MEAN_ANOMALY":"218.6944","NORAD_CAT_ID":"49171","CLASSIFICATION_TYPE":"U","DECAY_DATE":null,"TLE_LINE2":"2 49171  69.9998 318.7844 0003454 273.3554 218.6944 15.64275661  3734","MEAN_MOTION":"15.64275661","CENTER_NAME":"EARTH","TIME_SYSTEM":"UTC","REV_AT_EPOCH":"373","COUNTRY_CODE":"US","MEAN_MOTION_DOT":"-0.00661073","MEAN_ELEMENT_THEORY":"SGP4","RA_OF_ASC_NODE":"318.7844","REF_FRAME":"TEME","APOAPSIS":"377.657"},{"INCLINATION":"69.9982","SEMIMAJOR_AXIS":"6737.832","OBJECT_TYPE":"PAYLOAD","ELEMENT_SET_NO":"999","ECCENTRICITY":"0.00037010","EPHEMERIS_TYPE":"0","EPOCH":"2021-11-12T22:00:00.999936","PERIAPSIS":"357.204","RCS_SIZE":"LARGE","MEAN_MOTION_DDOT":"0.0000000000000","OBJECT_NAME":"STARLINK-3091","SITE":"AFWTR","PERIOD":"91.736","GP_ID":"189647138","LAUNCH_DATE":"2021-09-14","BSTAR":"0.00062806000000","MEAN_ELEMENT_THEORY":"SGP4","RA_OF_ASC_NODE":"318.7262","REF_FRAME":"TEME","APOAPSIS":"362.191","CENTER_NAME":"EARTH","MEAN_MOTION":"15.69721013","TLE_LINE2":"2 49172  69.9982 318.7262 0003701 286.4785 254.8668 15.69721013  3735","TIME_SYSTEM":"UTC","REV_AT_EPOCH":"373","MEAN_MOTION_DOT":"0.00075356","COUNTRY_CODE":"US","CLASSIFICATION_TYPE":"U","DECAY_DATE":null,"ARG_OF_PERICENTER":"286.4785","OBJECT_ID":"2021-082AU","TLE_LINE1":"1 49172U 21082AU  21316.91667824  .00075356  00000-0  62806-3 0  9993","FILE":"3213639","NORAD_CAT_ID":"49172","MEAN_ANOMALY":"254.8668"},{"OBJECT_TYPE":"PAYLOAD","ELEMENT_SET_NO":"999","INCLINATION":"69.9983","SEMIMAJOR_AXIS":"6737.719","MEAN_MOTION_DDOT":"0.0000000000000","RCS_SIZE":"LARGE","PERIAPSIS":"357.184","EPOCH":"2021-11-12T22:00:00.999936","EPHEMERIS_TYPE":"0","ECCENTRICITY":"0.00035630","OBJECT_NAME":"STARLINK-3045","BSTAR":"-0.00008553500000","PERIOD":"91.734","GP_ID":"189647711","LAUNCH_DATE":"2021-09-14","SITE":"AFWTR","APOAPSIS":"361.985","REF_FRAME":"TEME","RA_OF_ASC_NODE":"318.4162","MEAN_ELEMENT_THEORY":"SGP4","COUNTRY_CODE":"US","MEAN_MOTION_DOT":"-0.00010416","REV_AT_EPOCH":"374","TIME_SYSTEM":"UTC","TLE_LINE2":"2 49173  69.9983 318.4162 0003563 292.2411 155.5205 15.69760466  3740","MEAN_MOTION":"15.69760466","CENTER_NAME":"EARTH","DECAY_DATE":null,"CLASSIFICATION_TYPE":"U","MEAN_ANOMALY":"155.5205","NORAD_CAT_ID":"49173","FILE":"3213639","TLE_LINE1":"1 49173U 21082AV  21316.91667824 -.00010416  00000-0 -85535-4 0  9997","OBJECT_ID":"2021-082AV","ARG_OF_PERICENTER":"292.2411"},{"MEAN_ELEMENT_THEORY":"SGP4","RA_OF_ASC_NODE":"318.7329","REF_FRAME":"TEME","APOAPSIS":"362.240","TLE_LINE2":"2 49174  69.9991 318.7329 0003803 286.6465 250.4409 15.69728046  3739","MEAN_MOTION":"15.69728046","CENTER_NAME":"EARTH","TIME_SYSTEM":"UTC","REV_AT_EPOCH":"373","COUNTRY_CODE":"US","MEAN_MOTION_DOT":"0.00078651","CLASSIFICATION_TYPE":"U","DECAY_DATE":null,"TLE_LINE1":"1 49174U 21082AW  21316.91667824  .00078651  00000-0  65499-3 0  9997","ARG_OF_PERICENTER":"286.6465","OBJECT_ID":"2021-082AW","FILE":"3213639","MEAN_ANOMALY":"250.4409","NORAD_CAT_ID":"49174","INCLINATION":"69.9991","SEMIMAJOR_AXIS":"6737.812","ELEMENT_SET_NO":"999","OBJECT_TYPE":"PAYLOAD","ECCENTRICITY":"0.00038030","EPOCH":"2021-11-12T22:00:00.999936","EPHEMERIS_TYPE":"0","PERIAPSIS":"357.115","MEAN_MOTION_DDOT":"0.0000000000000","RCS_SIZE":"LARGE","OBJECT_NAME":"STARLINK-3047","SITE":"AFWTR","PERIOD":"91.736","GP_ID":"189647046","LAUNCH_DATE":"2021-09-14","BSTAR":"0.00065499000000"},{"TLE_LINE1":"1 49175U 21082AX  21316.91667824 -.00030063  00000-0 -25078-3 0  9994","OBJECT_ID":"2021-082AX","ARG_OF_PERICENTER":"288.7357","FILE":"3213639","NORAD_CAT_ID":"49175","MEAN_ANOMALY":"254.7330","CLASSIFICATION_TYPE":"U","DECAY_DATE":null,"TLE_LINE2":"2 49175  69.9987 318.7249 0003563 288.7357 254.7330 15.69765062  3731","MEAN_MOTION":"15.69765062","CENTER_NAME":"EARTH","TIME_SYSTEM":"UTC","REV_AT_EPOCH":"373","COUNTRY_CODE":"US","MEAN_MOTION_DOT":"-0.00030063","MEAN_ELEMENT_THEORY":"SGP4","RA_OF_ASC_NODE":"318.7249","REF_FRAME":"TEME","APOAPSIS":"361.972","SITE":"AFWTR","GP_ID":"189647625","LAUNCH_DATE":"2021-09-14","PERIOD":"91.733","BSTAR":"-0.00025078000000","OBJECT_NAME":"STARLINK-3087","ECCENTRICITY":"0.00035630","EPOCH":"2021-11-12T22:00:00.999936","EPHEMERIS_TYPE":"0","PERIAPSIS":"357.171","MEAN_MOTION_DDOT":"0.0000000000000","RCS_SIZE":"LARGE","INCLINATION":"69.9987","SEMIMAJOR_AXIS":"6737.706","OBJECT_TYPE":"PAYLOAD","ELEMENT_SET_NO":"999"}];
